{
  "type": "FeatureCollection",
  "features": [
    {
      "type": "Feature",
      "properties": {
        "norad_id": 31185,
        "name": "FENGYUN 1C DEB",
        "group": "fengyun-1c-debris",
        "lat": 73.82091192180631,
        "lon": -163.36925619598256,
        "alt_km": 846.180411958594,
        "timestamp": "2025-12-13T18:50:04.711904+00:00",
        "meta_object_name": "FENGYUN 1C DEB",
        "meta_object_id": "1999-025BJP",
        "meta_epoch": "2025-12-03T06:44:56.905152",
        "meta_mean_motion": 14.03019915,
        "meta_eccentricity": 0.0041359,
        "meta_inclination": 98.8321,
        "meta_ra_of_asc_node": 334.0356,
        "meta_arg_of_pericenter": 132.5488,
        "meta_mean_anomaly": 227.9182,
        "meta_ephemeris_type": 0,
        "meta_classification_type": "U",
        "meta_norad_cat_id": 31185,
        "meta_element_set_no": 999,
        "meta_rev_at_epoch": 62204,
        "meta_bstar": 0.0004459,
        "meta_mean_motion_dot": 6.55e-06,
        "meta_mean_motion_ddot": 0,
        "tle_line1": "1 31185U 99025BJP 25337.28121418  .00000655  00000+0  44590-3 0  9990",
        "tle_line2": "2 31185  98.8321 334.0356 0041359 132.5488 227.9182 14.03019915622046"
      },
      "geometry": {
        "type": "Point",
        "coordinates": [
          -163.36925619598256,
          73.82091192180631
        ]
      }
    },
    {
      "type": "Feature",
      "properties": {
        "norad_id": 31186,
        "name": "FENGYUN 1C DEB",
        "group": "fengyun-1c-debris",
        "lat": -35.81364046013915,
        "lon": -90.13212715242187,
        "alt_km": 857.5096150856798,
        "timestamp": "2025-12-13T18:50:04.711915+00:00",
        "meta_object_name": "FENGYUN 1C DEB",
        "meta_object_id": "1999-025BJQ",
        "meta_epoch": "2025-12-07T00:08:36.055104",
        "meta_mean_motion": 14.12891869,
        "meta_eccentricity": 0.00265947,
        "meta_inclination": 99.1777,
        "meta_ra_of_asc_node": 256.2241,
        "meta_arg_of_pericenter": 78.4554,
        "meta_mean_anomaly": 344.6063,
        "meta_ephemeris_type": 0,
        "meta_classification_type": "U",
        "meta_norad_cat_id": 31186,
        "meta_element_set_no": 999,
        "meta_rev_at_epoch": 96024,
        "meta_bstar": 0.00076036897,
        "meta_mean_motion_dot": 1.373e-05,
        "meta_mean_motion_ddot": 0,
        "tle_line1": "1 31186U 99025BJQ 25341.00597286  .00001373  00000+0  76037-3 0  9995",
        "tle_line2": "2 31186  99.1777 256.2241 0026594  78.4554 344.6063 14.12891869960248"
      },
      "geometry": {
        "type": "Point",
        "coordinates": [
          -90.13212715242187,
          -35.81364046013915
        ]
      }
    },
    {
      "type": "Feature",
      "properties": {
        "norad_id": 31187,
        "name": "FENGYUN 1C DEB",
        "group": "fengyun-1c-debris",
        "lat": 30.31842979599558,
        "lon": -154.1143521168311,
        "alt_km": 846.7106949760337,
        "timestamp": "2025-12-13T18:50:04.711926+00:00",
        "meta_object_name": "FENGYUN 1C DEB",
        "meta_object_id": "1999-025BJR",
        "meta_epoch": "2025-12-12T09:46:42.392640",
        "meta_mean_motion": 14.59343583,
        "meta_eccentricity": 0.02202005,
        "meta_inclination": 99.2422,
        "meta_ra_of_asc_node": 209.8159,
        "meta_arg_of_pericenter": 224.7707,
        "meta_mean_anomaly": 133.5535,
        "meta_ephemeris_type": 0,
        "meta_classification_type": "U",
        "meta_norad_cat_id": 31187,
        "meta_element_set_no": 999,
        "meta_rev_at_epoch": 69095,
        "meta_bstar": 0.004621599,
        "meta_mean_motion_dot": 0.00030762,
        "meta_mean_motion_ddot": 0,
        "tle_line1": "1 31187U 99025BJR 25346.40743510  .00030762  00000+0  46216-2 0  9997",
        "tle_line2": "2 31187  99.2422 209.8159 0220200 224.7707 133.5535 14.59343583690958"
      },
      "geometry": {
        "type": "Point",
        "coordinates": [
          -154.1143521168311,
          30.31842979599558
        ]
      }
    },
    {
      "type": "Feature",
      "properties": {
        "norad_id": 31188,
        "name": "FENGYUN 1C DEB",
        "group": "fengyun-1c-debris",
        "lat": 49.955534159748495,
        "lon": 45.00834276758352,
        "alt_km": 849.4108692848949,
        "timestamp": "2025-12-13T18:50:04.711936+00:00",
        "meta_object_name": "FENGYUN 1C DEB",
        "meta_object_id": "1999-025BJS",
        "meta_epoch": "2025-12-12T22:37:32.418048",
        "meta_mean_motion": 14.23826803,
        "meta_eccentricity": 0.00600649,
        "meta_inclination": 98.7483,
        "meta_ra_of_asc_node": 54.7282,
        "meta_arg_of_pericenter": 248.7927,
        "meta_mean_anomaly": 168.1705,
        "meta_ephemeris_type": 0,
        "meta_classification_type": "U",
        "meta_norad_cat_id": 31188,
        "meta_element_set_no": 999,
        "meta_rev_at_epoch": 96339,
        "meta_bstar": 0.0022129555,
        "meta_mean_motion_dot": 5.117e-05,
        "meta_mean_motion_ddot": 0,
        "tle_line1": "1 31188U 99025BJS 25346.94273632  .00005117  00000+0  22130-2 0  9995",
        "tle_line2": "2 31188  98.7483  54.7282 0060064 248.7927 168.1705 14.23826803963390"
      },
      "geometry": {
        "type": "Point",
        "coordinates": [
          45.00834276758352,
          49.955534159748495
        ]
      }
    },
    {
      "type": "Feature",
      "properties": {
        "norad_id": 31190,
        "name": "FENGYUN 1C DEB",
        "group": "fengyun-1c-debris",
        "lat": 46.718844649481056,
        "lon": -170.03215507603906,
        "alt_km": 904.4107392037586,
        "timestamp": "2025-12-13T18:50:04.711947+00:00",
        "meta_object_name": "FENGYUN 1C DEB",
        "meta_object_id": "1999-025BJU",
        "meta_epoch": "2025-12-12T23:22:47.279712",
        "meta_mean_motion": 14.03600333,
        "meta_eccentricity": 0.00676303,
        "meta_inclination": 98.8189,
        "meta_ra_of_asc_node": 359.6933,
        "meta_arg_of_pericenter": 258.7385,
        "meta_mean_anomaly": 100.6176,
        "meta_ephemeris_type": 0,
        "meta_classification_type": "U",
        "meta_norad_cat_id": 31190,
        "meta_element_set_no": 999,
        "meta_rev_at_epoch": 95550,
        "meta_bstar": 0.0012011861,
        "meta_mean_motion_dot": 1.881e-05,
        "meta_mean_motion_ddot": 0,
        "tle_line1": "1 31190U 99025BJU 25346.97415833  .00001881  00000+0  12012-2 0  9994",
        "tle_line2": "2 31190  98.8189 359.6933 0067630 258.7385 100.6176 14.03600333955505"
      },
      "geometry": {
        "type": "Point",
        "coordinates": [
          -170.03215507603906,
          46.718844649481056
        ]
      }
    },
    {
      "type": "Feature",
      "properties": {
        "norad_id": 31191,
        "name": "FENGYUN 1C DEB",
        "group": "fengyun-1c-debris",
        "lat": 35.40432189909557,
        "lon": 75.0117327973487,
        "alt_km": 708.5564038885841,
        "timestamp": "2025-12-13T18:50:04.711957+00:00",
        "meta_object_name": "FENGYUN 1C DEB",
        "meta_object_id": "1999-025BJV",
        "meta_epoch": "2025-12-12T17:09:46.928736",
        "meta_mean_motion": 14.40791498,
        "meta_eccentricity": 0.00922281,
        "meta_inclination": 98.7826,
        "meta_ra_of_asc_node": 247.605,
        "meta_arg_of_pericenter": 194.5766,
        "meta_mean_anomaly": 165.2759,
        "meta_ephemeris_type": 0,
        "meta_classification_type": "U",
        "meta_norad_cat_id": 31191,
        "meta_element_set_no": 999,
        "meta_rev_at_epoch": 98012,
        "meta_bstar": 0.00052553885,
        "meta_mean_motion_dot": 1.72e-05,
        "meta_mean_motion_ddot": 0,
        "tle_line1": "1 31191U 99025BJV 25346.71512649  .00001720  00000+0  52554-3 0  9998",
        "tle_line2": "2 31191  98.7826 247.6050 0092228 194.5766 165.2759 14.40791498980124"
      },
      "geometry": {
        "type": "Point",
        "coordinates": [
          75.0117327973487,
          35.40432189909557
        ]
      }
    },
    {
      "type": "Feature",
      "properties": {
        "norad_id": 31192,
        "name": "FENGYUN 1C DEB",
        "group": "fengyun-1c-debris",
        "lat": -29.811453424358834,
        "lon": -23.612587519904842,
        "alt_km": 947.3161554408671,
        "timestamp": "2025-12-13T18:50:04.711969+00:00",
        "meta_object_name": "FENGYUN 1C DEB",
        "meta_object_id": "1999-025BJW",
        "meta_epoch": "2025-12-13T05:27:35.034048",
        "meta_mean_motion": 14.20961229,
        "meta_eccentricity": 0.02596679,
        "meta_inclination": 98.5533,
        "meta_ra_of_asc_node": 330.9004,
        "meta_arg_of_pericenter": 102.3272,
        "meta_mean_anomaly": 260.7104,
        "meta_ephemeris_type": 0,
        "meta_classification_type": "U",
        "meta_norad_cat_id": 31192,
        "meta_element_set_no": 999,
        "meta_rev_at_epoch": 96750,
        "meta_bstar": 0.00042097732,
        "meta_mean_motion_dot": 1.238e-05,
        "meta_mean_motion_ddot": 0,
        "tle_line1": "1 31192U 99025BJW 25347.22748882  .00001238  00000+0  42098-3 0  9992",
        "tle_line2": "2 31192  98.5533 330.9004 0259667 102.3272 260.7104 14.20961229967505"
      },
      "geometry": {
        "type": "Point",
        "coordinates": [
          -23.612587519904842,
          -29.811453424358834
        ]
      }
    }
  ]
}